STARLINK-30151          
1 56827U 23079E   26187.27135604 -.00004651  00000+0 -15968-3 0  9990
2 56827  43.0009 157.3679 0001315 269.1540  90.9161 15.27561557171022
STARLINK-30076          
1 56839U 23079S   26187.27007523 -.00004822  00000+0 -16595-3 0  9998
2 56839  43.0006 157.3521 0001329 277.7358  82.3342 15.27553285171020
STARLINK-5850           
1 57049U 23088B   26187.39786991 -.00002793  00000+0 -92000-4 0  9999
2 57049  43.0039 160.5789 0001631 283.8256  76.2414 15.27581162168677
STARLINK-31272          
1 59162U 24044L   26187.26875819 -.00002694  00000+0 -88467-4 0  9996
2 59162  43.0016 157.1037 0001373 267.1003  92.9691 15.27555077131708
STARLINK-33668          
1 63402U 25065D   26187.33292922  .00016368  00000+0  60311-3 0  9996
2 63402  42.9956 157.1542 0000216 260.8335  99.2492 15.27573432 70981
STARLINK-33686          
1 63422U 25065Z   26187.33162748  .00025356  00000+0  92854-3 0  9994
2 63422  43.0006 157.0798 0001793 263.7535  96.3113 15.27552399 70985
