{
  "schema": "int-telemetry-real-tle-snapshot/v1",
  "source": "celestrak",
  "group": "STARLINK",
  "format": "celestrak-gp-json",
  "source_url": "https://celestrak.org/NORAD/elements/gp.php?NAME=STARLINK&FORMAT=JSON",
  "downloaded_at": "2026-07-07T07:29:27.338Z",
  "generated_at": "2026-07-07T07:29:37.186Z",
  "fingerprint": "4a165085",
  "shell_id": "starlink-real-43deg-490km",
  "catalog_count": 10705,
  "shell_count": 3263,
  "selected_count": 348,
  "mean_altitude_km": 490.18,
  "mean_inclination_deg": 43.0022,
  "mean_mean_motion_rev_per_day": 15.27582862,
  "layout": {
    "planes": 6,
    "satellites_per_plane": 58,
    "selection_strategy": "target-shell-raan-clusters-even-slot-sampling",
    "raan_cluster_threshold_deg": 3,
    "target_inclination_deg": 43,
    "target_altitude_km": 490,
    "selected_shell_key": "43.0deg-500km",
    "target_shell_distance": 0.46
  },
  "satellites": [
    {
      "satellite_id": "P03-S35",
      "norad_id": 56827,
      "satellite_name": "STARLINK-30151",
      "cospar_id": "2023-079E",
      "shell_id": "starlink-real-43deg-490km",
      "plane_id": 2,
      "slot_id": 34,
      "epoch": "2026-07-06T06:30:45.161856",
      "inclination": 43.0009,
      "raan": 157.36789999999996,
      "eccentricity": 0.00013151,
      "argument_of_perigee": 269.154,
      "mean_anomaly": 90.91610000000003,
      "mean_motion": 15.27561557,
      "bstar": -0.0001596777,
      "status": "active",
      "raw_omm": {
        "OBJECT_NAME": "STARLINK-30151",
        "OBJECT_ID": "2023-079E",
        "EPOCH": "2026-07-06T06:30:45.161856",
        "MEAN_MOTION": 15.27561557,
        "ECCENTRICITY": 0.00013151,
        "INCLINATION": 43.0009,
        "RA_OF_ASC_NODE": 157.3679,
        "ARG_OF_PERICENTER": 269.154,
        "MEAN_ANOMALY": 90.9161,
        "EPHEMERIS_TYPE": 0,
        "CLASSIFICATION_TYPE": "U",
        "NORAD_CAT_ID": 56827,
        "ELEMENT_SET_NO": 999,
        "REV_AT_EPOCH": 17102,
        "BSTAR": -0.0001596777,
        "MEAN_MOTION_DOT": -0.00004651,
        "MEAN_MOTION_DDOT": 0
      },
      "source": "celestrak",
      "source_url": "https://celestrak.org/NORAD/elements/gp.php?NAME=STARLINK&FORMAT=JSON",
      "catalog_fingerprint": "4a165085"
    },
    {
      "satellite_id": "P03-S36",
      "norad_id": 56839,
      "satellite_name": "STARLINK-30076",
      "cospar_id": "2023-079S",
      "shell_id": "starlink-real-43deg-490km",
      "plane_id": 2,
      "slot_id": 35,
      "epoch": "2026-07-06T06:28:54.499872",
      "inclination": 43.0006,
      "raan": 157.35210000000006,
      "eccentricity": 0.00013294,
      "argument_of_perigee": 277.7357999999999,
      "mean_anomaly": 82.33420000000001,
      "mean_motion": 15.27553285,
      "bstar": -0.00016595308,
      "status": "active",
      "raw_omm": {
        "OBJECT_NAME": "STARLINK-30076",
        "OBJECT_ID": "2023-079S",
        "EPOCH": "2026-07-06T06:28:54.499872",
        "MEAN_MOTION": 15.27553285,
        "ECCENTRICITY": 0.00013294,
        "INCLINATION": 43.0006,
        "RA_OF_ASC_NODE": 157.3521,
        "ARG_OF_PERICENTER": 277.7358,
        "MEAN_ANOMALY": 82.3342,
        "EPHEMERIS_TYPE": 0,
        "CLASSIFICATION_TYPE": "U",
        "NORAD_CAT_ID": 56839,
        "ELEMENT_SET_NO": 999,
        "REV_AT_EPOCH": 17102,
        "BSTAR": -0.00016595308,
        "MEAN_MOTION_DOT": -0.00004822,
        "MEAN_MOTION_DDOT": 0
      },
      "source": "celestrak",
      "source_url": "https://celestrak.org/NORAD/elements/gp.php?NAME=STARLINK&FORMAT=JSON",
      "catalog_fingerprint": "4a165085"
    },
    {
      "satellite_id": "P03-S37",
      "norad_id": 59162,
      "satellite_name": "STARLINK-31272",
      "cospar_id": "2024-044L",
      "shell_id": "starlink-real-43deg-490km",
      "plane_id": 2,
      "slot_id": 36,
      "epoch": "2026-07-06T06:27:00.707616",
      "inclination": 43.0016,
      "raan": 157.1037,
      "eccentricity": 0.00013736,
      "argument_of_perigee": 267.10030000000006,
      "mean_anomaly": 92.96910000000003,
      "mean_motion": 15.27555077,
      "bstar": -0.000088466834,
      "status": "active",
      "raw_omm": {
        "OBJECT_NAME": "STARLINK-31272",
        "OBJECT_ID": "2024-044L",
        "EPOCH": "2026-07-06T06:27:00.707616",
        "MEAN_MOTION": 15.27555077,
        "ECCENTRICITY": 0.00013736,
        "INCLINATION": 43.0016,
        "RA_OF_ASC_NODE": 157.1037,
        "ARG_OF_PERICENTER": 267.1003,
        "MEAN_ANOMALY": 92.9691,
        "EPHEMERIS_TYPE": 0,
        "CLASSIFICATION_TYPE": "U",
        "NORAD_CAT_ID": 59162,
        "ELEMENT_SET_NO": 999,
        "REV_AT_EPOCH": 13170,
        "BSTAR": -0.000088466834,
        "MEAN_MOTION_DOT": -0.00002694,
        "MEAN_MOTION_DDOT": 0
      },
      "source": "celestrak",
      "source_url": "https://celestrak.org/NORAD/elements/gp.php?NAME=STARLINK&FORMAT=JSON",
      "catalog_fingerprint": "4a165085"
    },
    {
      "satellite_id": "P03-S38",
      "norad_id": 63402,
      "satellite_name": "STARLINK-33668",
      "cospar_id": "2025-065D",
      "shell_id": "starlink-real-43deg-490km",
      "plane_id": 2,
      "slot_id": 37,
      "epoch": "2026-07-06T07:59:25.084608",
      "inclination": 42.9956,
      "raan": 157.15419999999995,
      "eccentricity": 0.00002169,
      "argument_of_perigee": 260.83349999999996,
      "mean_anomaly": 99.24919999999997,
      "mean_motion": 15.27573432,
      "bstar": 0.00060310638,
      "status": "active",
      "raw_omm": {
        "OBJECT_NAME": "STARLINK-33668",
        "OBJECT_ID": "2025-065D",
        "EPOCH": "2026-07-06T07:59:25.084608",
        "MEAN_MOTION": 15.27573432,
        "ECCENTRICITY": 0.00002169,
        "INCLINATION": 42.9956,
        "RA_OF_ASC_NODE": 157.1542,
        "ARG_OF_PERICENTER": 260.8335,
        "MEAN_ANOMALY": 99.2492,
        "EPHEMERIS_TYPE": 0,
        "CLASSIFICATION_TYPE": "U",
        "NORAD_CAT_ID": 63402,
        "ELEMENT_SET_NO": 999,
        "REV_AT_EPOCH": 7098,
        "BSTAR": 0.00060310638,
        "MEAN_MOTION_DOT": 0.00016368,
        "MEAN_MOTION_DDOT": 0
      },
      "source": "celestrak",
      "source_url": "https://celestrak.org/NORAD/elements/gp.php?NAME=STARLINK&FORMAT=JSON",
      "catalog_fingerprint": "4a165085"
    },
    {
      "satellite_id": "P03-S39",
      "norad_id": 57049,
      "satellite_name": "STARLINK-5850",
      "cospar_id": "2023-088B",
      "shell_id": "starlink-real-43deg-490km",
      "plane_id": 2,
      "slot_id": 38,
      "epoch": "2026-07-06T09:32:55.960224",
      "inclination": 43.0039,
      "raan": 160.57889999999998,
      "eccentricity": 0.0001631,
      "argument_of_perigee": 283.8256,
      "mean_anomaly": 76.2414,
      "mean_motion": 15.27581162,
      "bstar": -0.000092,
      "status": "active",
      "raw_omm": {
        "OBJECT_NAME": "STARLINK-5850",
        "OBJECT_ID": "2023-088B",
        "EPOCH": "2026-07-06T09:32:55.960224",
        "MEAN_MOTION": 15.27581162,
        "ECCENTRICITY": 0.0001631,
        "INCLINATION": 43.0039,
        "RA_OF_ASC_NODE": 160.5789,
        "ARG_OF_PERICENTER": 283.8256,
        "MEAN_ANOMALY": 76.2414,
        "EPHEMERIS_TYPE": 0,
        "CLASSIFICATION_TYPE": "U",
        "NORAD_CAT_ID": 57049,
        "ELEMENT_SET_NO": 999,
        "REV_AT_EPOCH": 16867,
        "BSTAR": -0.000092,
        "MEAN_MOTION_DOT": -0.00002793,
        "MEAN_MOTION_DDOT": 0
      },
      "source": "celestrak",
      "source_url": "https://celestrak.org/NORAD/elements/gp.php?NAME=STARLINK&FORMAT=JSON",
      "catalog_fingerprint": "4a165085"
    },
    {
      "satellite_id": "P03-S40",
      "norad_id": 63422,
      "satellite_name": "STARLINK-33686",
      "cospar_id": "2025-065Z",
      "shell_id": "starlink-real-43deg-490km",
      "plane_id": 2,
      "slot_id": 39,
      "epoch": "2026-07-06T07:57:32.614272",
      "inclination": 43.0006,
      "raan": 157.07979999999998,
      "eccentricity": 0.00017936,
      "argument_of_perigee": 263.75350000000003,
      "mean_anomaly": 96.31130000000002,
      "mean_motion": 15.27552399,
      "bstar": 0.00092854159,
      "status": "active",
      "raw_omm": {
        "OBJECT_NAME": "STARLINK-33686",
        "OBJECT_ID": "2025-065Z",
        "EPOCH": "2026-07-06T07:57:32.614272",
        "MEAN_MOTION": 15.27552399,
        "ECCENTRICITY": 0.00017936,
        "INCLINATION": 43.0006,
        "RA_OF_ASC_NODE": 157.0798,
        "ARG_OF_PERICENTER": 263.7535,
        "MEAN_ANOMALY": 96.3113,
        "EPHEMERIS_TYPE": 0,
        "CLASSIFICATION_TYPE": "U",
        "NORAD_CAT_ID": 63422,
        "ELEMENT_SET_NO": 999,
        "REV_AT_EPOCH": 7098,
        "BSTAR": 0.00092854159,
        "MEAN_MOTION_DOT": 0.00025356,
        "MEAN_MOTION_DDOT": 0
      },
      "source": "celestrak",
      "source_url": "https://celestrak.org/NORAD/elements/gp.php?NAME=STARLINK&FORMAT=JSON",
      "catalog_fingerprint": "4a165085"
    }
  ]
}